ORBCOMM FM05 [-]        
1 25117U 97084F   24081.11987875  .00003316  00000+0  10368-2 0  9997
2 25117  45.0170  17.2716 0001727  76.6970 283.4072 14.42346815376056
ORBCOMM FM06 [+]        
1 25118U 97084G   24080.96418965  .00003695  00000+0  11502-2 0  9990
2 25118  45.0163  18.1939 0000826  68.4366  52.0576 14.42353741376025
ORBCOMM FM07 [-]        
1 25119U 97084H   24080.23692697  .00002942  00000+0  92611-3 0  9992
2 25119  45.0157  22.1738 0002612  64.4842 295.6278 14.42275189375898
ORBCOMM FM03 [-]        
1 25158U 98007B   24081.22491457  .00001751  00000+0  69208-3 0  9995
2 25158 107.9795 286.8007 0048637 317.8582  41.8821 14.31948106359282
ORBCOMM FM04 [+]        
1 25159U 98007C   24081.22258886  .00001683  00000+0  66528-3 0  9999
2 25159 107.9777 289.7005 0044249 315.6392  44.1205 14.32203618359424
ORBCOMM FM17 [-]        
1 25413U 98046A   24081.50636489  .00001993  00000+0  77365-3 0  9990
2 25413  44.9934 230.4003 0002378 132.1563 227.9486 14.32922503338365
ORBCOMM FM18 [-]        
1 25414U 98046B   24081.52611731  .00002196  00000+0  80316-3 0  9992
2 25414  44.9931 158.4491 0004742 188.1916 171.8855 14.35612975339307
ORBCOMM FM19 [+]        
1 25415U 98046C   24081.48921127  .00002112  00000+0  77694-3 0  9994
2 25415  44.9939 159.9677 0003509 188.2298 185.9363 14.35448028339296
